line1,line2,classification,launch_year,launch_number,launch_piece,epoch_year,epoch_day,mean_motion_dot,mean_motion_ddot,bstar,ephemeris_type,element_number,satellite_number,inclination,ra_of_asc_node,eccentricity,arg_of_perigee,mean_anomaly,mean_motion,rev_at_epoch,datetime,x,y,z,cartesian_cords,NORAD_CAT_ID,OBJECT_TYPE,SATNAME,SITE,Operator/Owner,Users,Purpose,anom_inclination,anom_ra_of_asc_node,anom_eccentricity,anom_arg_of_perigee,anom_mean_anomaly,anom_mean_motion,anom_count
1   746U 64006A   21257.47026918  .00000422  00000-0  13043-3 0  9999,2   746  60.8495   7.5559 3030174 143.1667 242.1724  9.04029976909701,U,64,006,A,21,257.47026918,4.22e-06,0.0,0.0,0,999,746,60.8495,7.5559,0.3030174,143.1667,242.1724,9.04029976,90970,2021-09-14 11:17:11.257152,11574.345462789785,1478.153885080583,-24.094751231161844,[11574.34546279  1478.15388508   -24.09475123],746,PAYLOAD,ELEKTRON 1,TTMTR,0,0,0,0.0,0.0,0.0,0.0,0.0,0.0,0.0
1 00746U 64006A   21256.69605053  .00000475  00000-0  14461-3 0  9998,2 00746  60.8495   8.5934 3030256 142.9687 242.4716  9.04029209909656,U,64,006,A,21,256.69605053,4.75e-06,0.0,0.0,0,999,746,60.8495,8.5934,0.3030256,142.9687,242.4716,9.04029209,90965,2021-09-13 16:42:18.765792,11536.12482663724,1686.0998338267882,-24.005891410528314,[11536.12482664  1686.09983383   -24.00589141],746,PAYLOAD,ELEKTRON 1,TTMTR,0,0,0,0.0,0.0,0.0,0.0,0.0,0.0,0.0
1 00746U 64006A   21256.47484509  .00000487  00000-0  14785-3 0  9997,2 00746  60.8494   8.8898 3030281 142.9121 242.5570  9.04028952909639,U,64,006,A,21,256.47484509,4.87e-06,0.0,0.0,0,999,746,60.8494,8.8898,0.3030281,142.9121,242.557,9.04028952,90963,2021-09-13 11:23:46.615776,11524.515723910628,1745.3409528226982,-23.98545845507736,[11524.51572391  1745.34095282   -23.98545846],746,PAYLOAD,ELEKTRON 1,TTMTR,0,0,0,0.0,0.0,0.0,0.0,0.0,0.0,0.0
1 00746U 64006A   21255.70062527  .00000528  00000-0  15866-3 0  9991,2 00746  60.8493   9.9272 3030356 142.7140 242.8556  9.04028044909569,U,64,006,A,21,255.70062527,5.28e-06,0.0,0.0,0,999,746,60.8493,9.9272,0.3030356,142.714,242.8556,9.04028044,90956,2021-09-12 16:48:54.023328,11481.462231530679,1952.0884740020929,-23.89282610831955,[11481.46223153  1952.088474     -23.89282611],746,PAYLOAD,ELEKTRON 1,TTMTR,0,0,0,0.0,0.0,0.0,0.0,0.0,0.0,0.0
1 00746U 64006A   21255.47941927  .00000556  00000-0  16623-3 0  9998,2 00746  60.8493  10.2237 3030381 142.6574 242.9408  9.04027894909540,U,64,006,A,21,255.47941927,5.56e-06,0.0,0.0,0,999,746,60.8493,10.2237,0.3030381,142.6574,242.9408,9.04027894,90954,2021-09-12 11:30:21.824928,11468.474348595888,2010.9965497252272,-23.872286858980836,[11468.4743486   2010.99654973   -23.87228686],746,PAYLOAD,ELEKTRON 1,TTMTR,0,0,0,0.0,0.0,0.0,0.0,0.0,0.0,0.0
1   746U 64006A   21254.70519832  .00000612  00000-0  18112-3 0  9997,2   746  60.8491  11.2612 3030449 142.4592 243.2389  9.04026976909451,U,64,006,A,21,254.70519832,6.12e-06,0.0,0.0,0,999,746,60.8491,11.2612,0.3030449,142.4592,243.2389,9.04026976,90945,2021-09-11 16:55:29.134848,11420.610437883426,2216.4783744865485,-23.76410666593299,[11420.61043788  2216.47837449   -23.76410667],746,PAYLOAD,ELEKTRON 1,TTMTR,0,0,0,0.0,0.0,0.0,0.0,0.0,0.0,0.0
1 00746U 64006A   21254.48399212  .00000630  00000-0  18576-3 0  9994,2 00746  60.8490  11.5576 3030472 142.4026 243.3239  9.04026716909457,U,64,006,A,21,254.48399212,6.3e-06,0.0,0.0,0,999,746,60.849,11.5576,0.3030472,142.4026,243.3239,9.04026716,90945,2021-09-11 11:36:56.919168,11406.260843223636,2274.9827215872388,-23.740809422896245,[11406.26084322  2274.98272159   -23.74080942],746,PAYLOAD,ELEKTRON 1,TTMTR,0,0,0,0.0,0.0,0.0,0.0,0.0,0.0,0.0
1 00746U 64006A   21253.70976988  .00000647  00000-0  19042-3 0  9996,2 00746  60.8488  12.5952 3030534 142.2043 243.6214  9.04025524909383,U,64,006,A,21,253.70976988,6.47e-06,0.0,0.0,0,999,746,60.8488,12.5952,0.3030534,142.2043,243.6214,9.04025524,90938,2021-09-10 17:02:04.117632,11353.630421522548,2479.0804824876695,-23.62999123492248,[11353.63042152  2479.08048249   -23.62999123],746,PAYLOAD,ELEKTRON 1,TTMTR,0,0,0,0.0,0.0,0.0,0.0,0.0,0.0,0.0
1 00746U 64006A   21253.59916660  .00000654  00000-0  19232-3 0  9993,2 00746  60.8488  12.7434 3030544 142.1760 243.6638  9.04025376909370,U,64,006,A,21,253.5991666,6.54e-06,0.0,0.0,0,999,746,60.8488,12.7434,0.3030544,142.176,243.6638,9.04025376,90937,2021-09-10 14:22:47.994240,11345.81543736306,2508.1368066102395,-23.61691809287088,[11345.81543736  2508.13680661   -23.61691809],746,PAYLOAD,ELEKTRON 1,TTMTR,0,0,0,0.0,0.0,0.0,0.0,0.0,0.0,0.0
1   746U 64006A   21252.60373586  .00000659  00000-0  19348-3 0  9991,2   746  60.8484  14.0774 3030620 141.9212 244.0452  9.04023727909267,U,64,006,A,21,252.60373586,6.59e-06,0.0,0.0,0,999,746,60.8484,14.0774,0.303062,141.9212,244.0452,9.04023727,90926,2021-09-09 14:29:22.778304,11272.089640142434,2768.5934114127585,-23.463382366342078,[11272.08964014  2768.59341141   -23.46338237],746,PAYLOAD,ELEKTRON 1,TTMTR,0,0,0,0.0,0.0,0.0,0.0,0.0,0.0,0.0
1 00746U 64006A   21252.49313223  .00000705  00000-0  20571-3 0  9992,2 00746  60.8484  14.2256 3030628 141.8928 244.0876  9.04023800909278,U,64,006,A,21,252.49313223,7.05e-06,0.0,0.0,0,999,746,60.8484,14.2256,0.3030628,141.8928,244.0876,9.040238,90927,2021-09-09 11:50:06.624672,11263.522741068879,2797.3979133516546,-23.452073532349164,[11263.52274107  2797.39791335   -23.45207353],746,PAYLOAD,ELEKTRON 1,TTMTR,0,0,0,0.0,0.0,0.0,0.0,0.0,0.0,0.0
1 00746U 64006A   21251.60830319  .00000731  00000-0  21248-3 0  9995,2 00746  60.8481  15.4115 3030690 141.6663 244.4258  9.04022355909198,U,64,006,A,21,251.60830319,7.31e-06,0.0,0.0,0,999,746,60.8481,15.4115,0.303069,141.6663,244.4258,9.04022355,90919,2021-09-08 14:35:57.395616,11192.338147632729,3026.980241633627,-23.30497976688888,[11192.33814763  3026.98024163   -23.30497977],746,PAYLOAD,ELEKTRON 1,TTMTR,0,0,0,0.0,0.0,0.0,0.0,0.0,0.0,0.0
1 00746U 64006A   21251.49769952  .00000730  00000-0  21236-3 0  9992,2 00746  60.8480  15.5597 3030698 141.6380 244.4680  9.04022139909184,U,64,006,A,21,251.49769952,7.3e-06,0.0,0.0,0,999,746,60.848,15.5597,0.3030698,141.638,244.468,9.04022139,90918,2021-09-08 11:56:41.238528,11183.111932743843,3055.548706489303,-23.28752429554045,[11183.11193274  3055.54870649   -23.2875243 ],746,PAYLOAD,ELEKTRON 1,TTMTR,0,0,0,0.0,0.0,0.0,0.0,0.0,0.0,0.0
1 00746U 64006A   21250.61286861  .00000748  00000-0  21685-3 0  9995,2 00746  60.8477  16.7456 3030759 141.4114 244.8055  9.04020591909100,U,64,006,A,21,250.61286861,7.48e-06,0.0,0.0,0,999,746,60.8477,16.7456,0.3030759,141.4114,244.8055,9.04020591,90910,2021-09-07 14:42:31.847904,11106.63614110755,3283.1410371312963,-23.141354842947887,[11106.63614111  3283.14103713   -23.14135484],746,PAYLOAD,ELEKTRON 1,TTMTR,0,0,0,0.0,0.0,0.0,0.0,0.0,0.0,0.0
1 00746U 64006A   21250.50226459  .00000756  00000-0  21920-3 0  9991,2 00746  60.8477  16.8938 3030769 141.3831 244.8476  9.04020437909096,U,64,006,A,21,250.50226459,7.56e-06,0.0,0.0,0,999,746,60.8477,16.8938,0.3030769,141.3831,244.8476,9.04020437,90909,2021-09-07 12:03:15.660576,11096.753666717366,3311.452615739007,-23.125744447921022,[11096.75366672  3311.45261574   -23.12574445],746,PAYLOAD,ELEKTRON 1,TTMTR,0,0,0,0.0,0.0,0.0,0.0,0.0,0.0,0.0
1 00746U 64006A   21249.61743186  .00000797  00000-0  22987-3 0  9991,2 00746  60.8474  18.0796 3030831 141.1566 245.1844  9.04018916909016,U,64,006,A,21,249.61743186,7.97e-06,0.0,0.0,0,999,746,60.8474,18.0796,0.3030831,141.1566,245.1844,9.04018916,90901,2021-09-06 14:49:06.112704,11015.042567254253,3536.9310065151226,-22.946921601816022,[11015.04256725  3536.93100652   -22.9469216 ],746,PAYLOAD,ELEKTRON 1,TTMTR,0,0,0,0.0,0.0,0.0,0.0,0.0,0.0,0.0
1 00746U 64006A   21249.50682762  .00000807  00000-0  23269-3 0  9997,2 00746  60.8473  18.2279 3030839 141.1283 245.2265  9.04018762909003,U,64,006,A,21,249.50682762,8.07e-06,0.0,0.0,0,999,746,60.8473,18.2279,0.3030839,141.1283,245.2265,9.04018762,90900,2021-09-06 12:09:49.906368,11004.496299220933,3564.9967742254958,-22.916510648558774,[11004.49629922  3564.99677423   -22.91651065],746,PAYLOAD,ELEKTRON 1,TTMTR,0,0,0,0.0,0.0,0.0,0.0,0.0,0.0,0.0
1 00746U 64006A   21248.62199312  .00000847  00000-0  24323-3 0  9999,2 00746  60.8471  19.4138 3030894 140.9012 245.5632  9.04017137908922,U,64,006,A,21,248.62199312,8.47e-06,0.0,0.0,0,999,746,60.8471,19.4138,0.3030894,140.9012,245.5632,9.04017137,90892,2021-09-05 14:55:40.205568,10917.577489477864,3788.2479404733253,-22.746409898618516,[10917.57748948  3788.24794047   -22.7464099 ],746,PAYLOAD,ELEKTRON 1,TTMTR,0,0,0,0.0,0.0,0.0,0.0,0.0,0.0,0.0
1 00746U 64006A   21248.51138866  .00000854  00000-0  24510-3 0  9990,2 00746  60.8470  19.5620 3030903 140.8729 245.6051  9.04016941908910,U,64,006,A,21,248.51138866,8.54e-06,0.0,0.0,0,999,746,60.847,19.562,0.3030903,140.8729,245.6051,9.04016941,90891,2021-09-05 12:16:23.980224,10906.400683253194,3816.0028072182067,-22.72843569543303,[10906.40068325  3816.00280722   -22.7284357 ],746,PAYLOAD,ELEKTRON 1,TTMTR,0,0,0,0.0,0.0,0.0,0.0,0.0,0.0,0.0
1 00746U 64006A   21247.73715658  .00000901  00000-0  25741-3 0  9993,2 00746  60.8468  20.5996 3030953 140.6745 245.8988  9.04015532908844,U,64,006,A,21,247.73715658,9.01e-06,0.0,0.0,0,999,746,60.8468,20.5996,0.3030953,140.6745,245.8988,9.04015532,90884,2021-09-04 17:41:30.328512,10826.126163900022,4009.4125890415453,-22.55271787159802,[10826.1261639   4009.41258904   -22.55271787],746,PAYLOAD,ELEKTRON 1,TTMTR,0,0,0,0.0,0.0,0.0,0.0,0.0,0.0,0.0
1   746U 64006A   21247.62655211  .00000884  00000-0  25286-3 0  9993,2   746  60.8467  20.7479 3030961 140.6462 245.9406  9.04015151908816,U,64,006,A,21,247.62655211,8.84e-06,0.0,0.0,0,999,746,60.8467,20.7479,0.3030961,140.6462,245.9406,9.04015151,90881,2021-09-04 15:02:14.102304,10814.378187653323,4036.9199909500353,-22.534257886733084,[10814.37818765  4036.91999095   -22.53425789],746,PAYLOAD,ELEKTRON 1,TTMTR,0,0,0,0.0,0.0,0.0,0.0,0.0,0.0,0.0
